     2.100          NAVIGATION                              RINEX VERSION / TYPE
fic2rin                                 09/20/2010 00:10:15 PGM / RUN BY / DATE
                                                            END OF HEADER
28 10  9 19  4  0  0.0 -.301748514175D-05  .147792889038D-11  .000000000000D+00
     .700000000000D+01 -.651562500000D+02  .422196157593D-08  .216526723619D+01
    -.360980629921D-05  .161889465526D-01  .437907874584D-05  .515368188095D+04
     .144000000000D+05  .931322574615D-07  .146496685508D+01 -.322237610817D-06
     .971201589256D+00  .299281250000D+03 -.194693310873D+01 -.794747390133D-08
    -.144291724615D-09  .100000000000D+01  .160200000000D+04  .000000000000D+00
     .240000000000D+01  .000000000000D+00 -.107102096081D-07  .700000000000D+01
     .720600000000D+04  .400000000000D+01
29 10  9 19  4  0  0.0  .150384847075D-03  .272848410532D-11  .000000000000D+00
     .780000000000D+02 -.521562500000D+02  .418481717158D-08 -.207318661382D+01
    -.258162617683D-05  .266564125195D-02  .112876296043D-04  .515367482567D+04
     .144000000000D+05  .316649675369D-07  .250899513226D+01  .912696123123D-07
     .961143189209D+00  .158875000000D+03 -.125089807741D+01 -.782746890264D-08
     .165364030933D-09  .100000000000D+01  .160200000000D+04  .000000000000D+00
     .240000000000D+01  .000000000000D+00 -.884756445885D-08  .780000000000D+02
     .720600000000D+04  .400000000000D+01
30 10  9 19  4  0  0.0  .279636122286D-03  .341060513165D-11  .000000000000D+00
     .950000000000D+02 -.695625000000D+02  .462126392276D-08  .255577848732D+01
    -.350922346115D-05  .126240950776D-01  .325404107571D-05  .515369299126D+04
     .144000000000D+05  .150874257088D-06  .138442710567D+01  .279396772385D-07
     .957150713146D+00  .311468750000D+03  .151651297694D+01 -.815248244076D-08
    -.217509060125D-09  .100000000000D+01  .160200000000D+04  .000000000000D+00
     .340000000000D+01  .000000000000D+00 -.791624188423D-08  .950000000000D+02
     .720600000000D+04  .400000000000D+01
31 10  9 19  4  0  0.0 -.806385651231D-05  .318323145621D-11  .000000000000D+00
     .550000000000D+02  .733437500000D+02  .427982112887D-08 -.134898490890D+01
     .383332371712D-05  .739517167676D-02  .569038093090D-05  .515376346588D+04
     .144000000000D+05 -.152736902237D-06  .385664384104D+00 -.186264514923D-08
     .978050194894D+00  .281281250000D+03 -.105215045541D+01 -.818212653270D-08
     .225723688012D-09  .100000000000D+01  .160200000000D+04  .000000000000D+00
     .240000000000D+01  .000000000000D+00 -.130385160446D-07  .550000000000D+02
     .720600000000D+04  .400000000000D+01
32 10  9 19  4  0  0.0 -.886940397322D-04 -.898126018001D-11  .000000000000D+00
     .380000000000D+02 -.271562500000D+02  .507021119465D-08 -.549664968987D+00
    -.140257179737D-05  .126701466506D-01  .630505383015D-05  .515362190247D+04
     .144000000000D+05 -.126659870148D-06 -.162715472793D+01 -.149011611938D-06
     .957388912783D+00  .259125000000D+03 -.933127940799D+00 -.849249660371D-08
    -.201436962087D-09  .100000000000D+01  .160200000000D+04  .000000000000D+00
     .240000000000D+01  .000000000000D+00 -.325962901115D-08  .380000000000D+02
     .720600000000D+04  .400000000000D+01
10 10  9 19  3 59 44.0 -.527612864971D-04 -.102318153949D-11  .000000000000D+00
     .210000000000D+02 -.173125000000D+02  .512164190837D-08  .213579631114D+01
    -.916421413422D-06  .934530666564D-02  .620447099209D-05  .515351536942D+04
     .143840000000D+05 -.242143869400D-06 -.169109372038D+01 -.800937414169D-07
     .951590263931D+00  .256937500000D+03  .662300661218D+00 -.826105839196D-08
    -.243581574722D-09  .100000000000D+01  .160200000000D+04  .000000000000D+00
     .240000000000D+01  .000000000000D+00 -.279396772385D-08  .210000000000D+02
     .735600000000D+04  .400000000000D+01
27 10  9 19  3 59 44.0  .190319027752D-03  .352429196937D-11  .000000000000D+00
     .580000000000D+02  .622812500000D+02  .423874798944D-08  .111907380660D+01
     .262819230556D-05  .215809223009D-01  .617839396000D-05  .515358095360D+04
     .143840000000D+05 -.633299350739D-07  .329946239311D+00 -.512227416039D-06
     .979538690633D+00  .274031250000D+03 -.137141317661D+01 -.823355724642D-08
     .120004998690D-09  .100000000000D+01  .160200000000D+04  .000000000000D+00
     .240000000000D+01  .000000000000D+00 -.419095158577D-08  .580000000000D+02
     .798600000000D+04  .400000000000D+01
18 10  9 19  3 59 44.0  .939043238759D-04  .227373675443D-11  .000000000000D+00
     .200000000000D+01 -.238125000000D+02  .540379651839D-08  .292114451296D+01
    -.131502747536D-05  .118577240501D-01  .576861202717D-05  .515372302818D+04
     .143840000000D+05 -.204890966415D-07 -.169288184515D+01 -.195577740669D-06
     .935542609973D+00  .254093750000D+03 -.229483709756D+01 -.830927468607D-08
    -.355014787791D-09  .100000000000D+01  .160200000000D+04  .000000000000D+00
     .240000000000D+01  .000000000000D+00 -.107102096081D-07  .200000000000D+01
     .102060000000D+05  .400000000000D+01
13 10  9 19  3 59 44.0  .297074206173D-03 -.909494701773D-12  .000000000000D+00
     .200000000000D+01  .271250000000D+02  .361979363608D-08  .108407832357D+01
     .122003257275D-05  .434357509948D-02  .103376805782D-04  .515370993423D+04
     .143840000000D+05 -.558793544769D-07 -.593027676337D+00 -.931322574615D-07
     .992128437812D+00  .197000000000D+03  .180772360614D+01 -.756781522988D-08
    -.241081470582D-09  .100000000000D+01  .160200000000D+04  .000000000000D+00
     .240000000000D+01  .000000000000D+00 -.107102096081D-07  .200000000000D+01
     .109860000000D+05  .400000000000D+01
 1 10  9 19  4  0  0.0 -.163933727890D-03 -.386535248253D-11  .000000000000D+00
     .600000000000D+02 -.648125000000D+02  .454197490577D-08  .178128304422D+01
    -.343844294548D-05  .449101172853D-02  .384077429771D-05  .515362829971D+04
     .144000000000D+05  .111758708954D-07  .142473441498D+01 -.428408384323D-07
     .965688586863D+00  .310343750000D+03  .959713017088D+00 -.831570352529D-08
    -.223580741607D-09  .100000000000D+01  .160200000000D+04  .000000000000D+00
     .240000000000D+01  .630000000000D+02 -.190921127796D-07  .600000000000D+02
     .119160000000D+05  .400000000000D+01
20 10  9 19  3 59 44.0  .509871169925D-04 -.341060513165D-12  .000000000000D+00
     .000000000000D+00 -.223437500000D+02  .552880172536D-08 -.300857696036D+01
    -.113062560558D-05  .413913815282D-02  .540725886822D-05  .515353090096D+04
     .143840000000D+05  .108033418655D-06 -.174687076957D+01 -.819563865662D-07
     .935518827314D+00  .260843750000D+03  .129673333575D+01 -.852821237713D-08
    -.220366321999D-09  .100000000000D+01  .160200000000D+04  .000000000000D+00
     .240000000000D+01  .000000000000D+00 -.791624188423D-08  .000000000000D+00
     .136560000000D+05  .400000000000D+01
13 10  9 19  5 59 44.0  .297067221254D-03 -.909494701773D-12  .000000000000D+00
     .340000000000D+02  .232500000000D+02  .370979738509D-08  .213457547528D+01
     .119209289551D-05  .434349046554D-02  .105854123831D-04  .515370713806D+04
     .215840000000D+05  .260770320892D-07 -.593081821861D+00 -.800937414169D-07
     .992126969042D+00  .186718750000D+03  .180738004422D+01 -.750602694186D-08
    -.243224416988D-09  .100000000000D+01  .160200000000D+04  .000000000000D+00
     .240000000000D+01  .000000000000D+00 -.107102096081D-07  .340000000000D+02
     .144060000000D+05  .400000000000D+01
18 10  9 19  5 59 44.0  .939201563597D-04  .227373675443D-11  .000000000000D+00
     .300000000000D+01 -.213125000000D+02  .543486924126D-08 -.231189046528D+01
    -.122934579849D-05  .118574913358D-01  .563077628613D-05  .515372339630D+04
     .215840000000D+05  .240281224251D-06 -.169294326577D+01 -.614672899246D-07
     .935540447781D+00  .254750000000D+03 -.229482972299D+01 -.841177895579D-08
    -.141077305007D-09  .100000000000D+01  .160200000000D+04  .000000000000D+00
     .240000000000D+01  .000000000000D+00 -.107102096081D-07  .300000000000D+01
     .144060000000D+05  .400000000000D+01
20 10  9 19  5 59 44.0  .509843230247D-04 -.341060513165D-12  .000000000000D+00
     .320000000000D+02 -.200625000000D+02  .555237413581D-08 -.195838986243D+01
    -.968575477600D-06  .413985818159D-02  .517256557941D-05  .515352939987D+04
     .215840000000D+05  .856816768646D-07 -.174693237744D+01  .111758708954D-07
     .935517545798D+00  .266437500000D+03  .129682262349D+01 -.852535511526D-08
    -.167864135072D-09  .100000000000D+01  .160200000000D+04  .000000000000D+00
     .240000000000D+01  .000000000000D+00 -.791624188423D-08  .320000000000D+02
     .144060000000D+05  .400000000000D+01
27 10  9 19  5 59 44.0  .190344173461D-03  .352429196937D-11  .000000000000D+00
     .590000000000D+02  .695937500000D+02  .412767193410D-08  .216925199097D+01
     .346265733242D-05  .215806224151D-01  .509247183800D-05  .515358330345D+04
     .215840000000D+05  .318512320518D-06  .329890069108D+00 -.726431608200D-07
     .979541505287D+00  .279500000000D+03 -.137135723901D+01 -.769317759458D-08
    -.607168148133D-11  .100000000000D+01  .160200000000D+04  .000000000000D+00
     .240000000000D+01  .000000000000D+00 -.419095158577D-08  .590000000000D+02
     .144060000000D+05  .400000000000D+01
 1 10  9 19  6  0  0.0 -.163961201906D-03 -.386535248253D-11  .000000000000D+00
     .610000000000D+02 -.694375000000D+02  .455661837287D-08  .283153656009D+01
    -.358931720257D-05  .449153711088D-02  .383891165257D-05  .515362736320D+04
     .216000000000D+05  .670552253723D-07  .142467483325D+01  .931322574615D-08
     .965687226349D+00  .307750000000D+03  .959668267887D+00 -.825105797540D-08
    -.236795577772D-09  .100000000000D+01  .160200000000D+04  .000000000000D+00
     .240000000000D+01  .630000000000D+02 -.190921127796D-07  .610000000000D+02
     .144060000000D+05  .400000000000D+01
